{
  "type": "FeatureCollection",
  "features": [
    { "type": "Feature", "properties": { "releve": "angle nord-est" }, "geometry": { "type": "Point", "coordinates": [1.4862, 48.443] } },
    { "type": "Feature", "properties": { "releve": "intérieur" }, "geometry": { "type": "Point", "coordinates": [1.482, 48.4415] } },
    { "type": "Feature", "properties": { "releve": "angle sud-ouest" }, "geometry": { "type": "Point", "coordinates": [1.48, 48.44] } },
    { "type": "Feature", "properties": { "releve": "bordure nord" }, "geometry": { "type": "Point", "coordinates": [1.4831, 48.4431] } },
    { "type": "Feature", "properties": { "releve": "intérieur" }, "geometry": { "type": "Point", "coordinates": [1.484, 48.442] } },
    { "type": "Feature", "properties": { "releve": "angle sud-est" }, "geometry": { "type": "Point", "coordinates": [1.486, 48.4401] } },
    { "type": "Feature", "properties": { "releve": "bordure sud" }, "geometry": { "type": "Point", "coordinates": [1.483, 48.4402] } },
    { "type": "Feature", "properties": { "releve": "angle nord-ouest" }, "geometry": { "type": "Point", "coordinates": [1.4799, 48.4429] } },
    { "type": "Feature", "properties": { "releve": "intérieur" }, "geometry": { "type": "Point", "coordinates": [1.4835, 48.441] } }
  ]
}
